{
  "type": "FeatureCollection",
  "features": [
    {
      "type": "Feature",
      "properties": {
        "norad_id": 24946,
        "name": "IRIDIUM 33",
        "group": "iridium-33-debris",
        "lat": -46.931032185691855,
        "lon": 60.06008898021234,
        "alt_km": 786.6587093113612,
        "timestamp": "2025-12-22T22:44:21.363196+00:00",
        "meta_object_name": "IRIDIUM 33",
        "meta_object_id": "1997-051C",
        "meta_epoch": "2025-12-22T04:33:00.643392",
        "meta_mean_motion": 14.35043647,
        "meta_eccentricity": 0.00081627,
        "meta_inclination": 86.3861,
        "meta_ra_of_asc_node": 64.2549,
        "meta_arg_of_pericenter": 169.1562,
        "meta_mean_anomaly": 190.9812,
        "meta_ephemeris_type": 0,
        "meta_classification_type": "U",
        "meta_norad_cat_id": 24946,
        "meta_element_set_no": 999,
        "meta_rev_at_epoch": 47970,
        "meta_bstar": 0.00010632795,
        "meta_mean_motion_dot": 3.23e-06,
        "meta_mean_motion_ddot": 0,
        "tle_line1": "1 24946U 97051C   25356.18959078  .00000323  00000+0  10633-3 0  9998",
        "tle_line2": "2 24946  86.3861  64.2549 0008162 169.1562 190.9812 14.35043647479700"
      },
      "geometry": {
        "type": "Point",
        "coordinates": [
          60.06008898021234,
          -46.931032185691855
        ]
      }
    },
    {
      "type": "Feature",
      "properties": {
        "norad_id": 33773,
        "name": "IRIDIUM 33 DEB",
        "group": "iridium-33-debris",
        "lat": -32.045570899821776,
        "lon": -121.4777469271253,
        "alt_km": 754.7061057883284,
        "timestamp": "2025-12-22T22:44:21.363240+00:00",
        "meta_object_name": "IRIDIUM 33 DEB",
        "meta_object_id": "1997-051L",
        "meta_epoch": "2025-12-22T10:06:48.994560",
        "meta_mean_motion": 14.43276643,
        "meta_eccentricity": 0.00131532,
        "meta_inclination": 86.4001,
        "meta_ra_of_asc_node": 56.4867,
        "meta_arg_of_pericenter": 118.4701,
        "meta_mean_anomaly": 241.7827,
        "meta_ephemeris_type": 0,
        "meta_classification_type": "U",
        "meta_norad_cat_id": 33773,
        "meta_element_set_no": 999,
        "meta_rev_at_epoch": 88487,
        "meta_bstar": 0.00027711312,
        "meta_mean_motion_dot": 9.53e-06,
        "meta_mean_motion_ddot": 0,
        "tle_line1": "1 33773U 97051L   25356.42140040  .00000953  00000+0  27711-3 0  9998",
        "tle_line2": "2 33773  86.4001  56.4867 0013153 118.4701 241.7827 14.43276643884871"
      },
      "geometry": {
        "type": "Point",
        "coordinates": [
          -121.4777469271253,
          -32.045570899821776
        ]
      }
    },
    {
      "type": "Feature",
      "properties": {
        "norad_id": 33775,
        "name": "IRIDIUM 33 DEB",
        "group": "iridium-33-debris",
        "lat": -49.8627296205169,
        "lon": -130.4781171755687,
        "alt_km": 763.5075124108889,
        "timestamp": "2025-12-22T22:44:21.363256+00:00",
        "meta_object_name": "IRIDIUM 33 DEB",
        "meta_object_id": "1997-051N",
        "meta_epoch": "2025-12-22T10:17:36.055392",
        "meta_mean_motion": 14.41488239,
        "meta_eccentricity": 0.0015141,
        "meta_inclination": 86.3626,
        "meta_ra_of_asc_node": 45.4167,
        "meta_arg_of_pericenter": 125.7241,
        "meta_mean_anomaly": 294.6399,
        "meta_ephemeris_type": 0,
        "meta_classification_type": "U",
        "meta_norad_cat_id": 33775,
        "meta_element_set_no": 999,
        "meta_rev_at_epoch": 88280,
        "meta_bstar": 0.00029191052,
        "meta_mean_motion_dot": 9.68e-06,
        "meta_mean_motion_ddot": 0,
        "tle_line1": "1 33775U 97051N   25356.42888953  .00000968  00000+0  29191-3 0  9992",
        "tle_line2": "2 33775  86.3626  45.4167 0015141 125.7241 294.6399 14.41488239882801"
      },
      "geometry": {
        "type": "Point",
        "coordinates": [
          -130.4781171755687,
          -49.8627296205169
        ]
      }
    },
    {
      "type": "Feature",
      "properties": {
        "norad_id": 33776,
        "name": "IRIDIUM 33 DEB",
        "group": "iridium-33-debris",
        "lat": -19.3742259224531,
        "lon": 75.22173331667794,
        "alt_km": 780.4746308846779,
        "timestamp": "2025-12-22T22:44:21.363271+00:00",
        "meta_object_name": "IRIDIUM 33 DEB",
        "meta_object_id": "1997-051P",
        "meta_epoch": "2025-12-22T11:11:21.119424",
        "meta_mean_motion": 14.38251763,
        "meta_eccentricity": 0.00154129,
        "meta_inclination": 86.4033,
        "meta_ra_of_asc_node": 76.6912,
        "meta_arg_of_pericenter": 159.4139,
        "meta_mean_anomaly": 211.0921,
        "meta_ephemeris_type": 0,
        "meta_classification_type": "U",
        "meta_norad_cat_id": 33776,
        "meta_element_set_no": 999,
        "meta_rev_at_epoch": 88222,
        "meta_bstar": 0.00026667311,
        "meta_mean_motion_dot": 8.31e-06,
        "meta_mean_motion_ddot": 0,
        "tle_line1": "1 33776U 97051P   25356.46621666  .00000831  00000+0  26667-3 0  9997",
        "tle_line2": "2 33776  86.4033  76.6912 0015412 159.4139 211.0921 14.38251763882226"
      },
      "geometry": {
        "type": "Point",
        "coordinates": [
          75.22173331667794,
          -19.3742259224531
        ]
      }
    },
    {
      "type": "Feature",
      "properties": {
        "norad_id": 33777,
        "name": "IRIDIUM 33 DEB",
        "group": "iridium-33-debris",
        "lat": 46.846067048592104,
        "lon": 34.63723216363378,
        "alt_km": 707.0833140983441,
        "timestamp": "2025-12-22T22:44:21.363284+00:00",
        "meta_object_name": "IRIDIUM 33 DEB",
        "meta_object_id": "1997-051Q",
        "meta_epoch": "2025-12-22T09:19:32.657952",
        "meta_mean_motion": 14.55676863,
        "meta_eccentricity": 0.00060003,
        "meta_inclination": 86.3773,
        "meta_ra_of_asc_node": 31.0057,
        "meta_arg_of_pericenter": 207.4263,
        "meta_mean_anomaly": 152.6629,
        "meta_ephemeris_type": 0,
        "meta_classification_type": "U",
        "meta_norad_cat_id": 33777,
        "meta_element_set_no": 999,
        "meta_rev_at_epoch": 88674,
        "meta_bstar": 0.00079019042,
        "meta_mean_motion_dot": 3.472e-05,
        "meta_mean_motion_ddot": 0,
        "tle_line1": "1 33777U 97051Q   25356.38857243  .00003472  00000+0  79019-3 0  9994",
        "tle_line2": "2 33777  86.3773  31.0057 0006000 207.4263 152.6629 14.55676863886744"
      },
      "geometry": {
        "type": "Point",
        "coordinates": [
          34.63723216363378,
          46.846067048592104
        ]
      }
    },
    {
      "type": "Feature",
      "properties": {
        "norad_id": 33850,
        "name": "IRIDIUM 33 DEB",
        "group": "iridium-33-debris",
        "lat": -55.60877473810823,
        "lon": -148.8455254461456,
        "alt_km": 760.9412644385457,
        "timestamp": "2025-12-22T22:44:21.363297+00:00",
        "meta_object_name": "IRIDIUM 33 DEB",
        "meta_object_id": "1997-051T",
        "meta_epoch": "2025-12-22T12:27:04.750272",
        "meta_mean_motion": 14.42169167,
        "meta_eccentricity": 0.00131498,
        "meta_inclination": 86.3408,
        "meta_ra_of_asc_node": 25.9743,
        "meta_arg_of_pericenter": 131.7999,
        "meta_mean_anomaly": 39.6329,
        "meta_ephemeris_type": 0,
        "meta_classification_type": "U",
        "meta_norad_cat_id": 33850,
        "meta_element_set_no": 999,
        "meta_rev_at_epoch": 88293,
        "meta_bstar": 0.00036389057,
        "meta_mean_motion_dot": 1.218e-05,
        "meta_mean_motion_ddot": 0,
        "tle_line1": "1 33850U 97051T   25356.51880498  .00001218  00000+0  36389-3 0  9998",
        "tle_line2": "2 33850  86.3408  25.9743 0013149 131.7999  39.6329 14.42169167882930"
      },
      "geometry": {
        "type": "Point",
        "coordinates": [
          -148.8455254461456,
          -55.60877473810823
        ]
      }
    },
    {
      "type": "Feature",
      "properties": {
        "norad_id": 33853,
        "name": "IRIDIUM 33 DEB",
        "group": "iridium-33-debris",
        "lat": 63.70211615270837,
        "lon": 157.19535967642818,
        "alt_km": 883.3117396255084,
        "timestamp": "2025-12-22T22:44:21.363309+00:00",
        "meta_object_name": "IRIDIUM 33 DEB",
        "meta_object_id": "1997-051W",
        "meta_epoch": "2025-12-22T10:53:52.030752",
        "meta_mean_motion": 13.99110392,
        "meta_eccentricity": 0.02074764,
        "meta_inclination": 86.0002,
        "meta_ra_of_asc_node": 345.5509,
        "meta_arg_of_pericenter": 205.8505,
        "meta_mean_anomaly": 308.872,
        "meta_ephemeris_type": 0,
        "meta_classification_type": "U",
        "meta_norad_cat_id": 33853,
        "meta_element_set_no": 999,
        "meta_rev_at_epoch": 85481,
        "meta_bstar": 0.001219662,
        "meta_mean_motion_dot": 2.14e-05,
        "meta_mean_motion_ddot": 0,
        "tle_line1": "1 33853U 97051W   25356.45407443  .00002140  00000+0  12197-2 0  9994",
        "tle_line2": "2 33853  86.0002 345.5509 0207476 205.8505 308.8720 13.99110392854814"
      },
      "geometry": {
        "type": "Point",
        "coordinates": [
          157.19535967642818,
          63.70211615270837
        ]
      }
    }
  ]
}